start=new Date('2021-09-13T00:00:00.000Z').valueOf();
sats=[{"GP_ID":"184598810","OBJECT_TYPE":"PAYLOAD","RA_OF_ASC_NODE":"304.7790","EPOCH":"2021-09-12T14:25:19.765344","ECCENTRICITY":"0.00008030","NORAD_CAT_ID":"45391","SEMIMAJOR_AXIS":"6925.371","CENTER_NAME":"EARTH","APOAPSIS":"547.792","MEAN_MOTION":"15.06392673","BSTAR":"0.00006418700000","MEAN_MOTION_DOT":"0.00000675","COUNTRY_CODE":"US","ELEMENT_SET_NO":"999","REF_FRAME":"TEME","CLASSIFICATION_TYPE":"U","TLE_LINE2":"2 45391  53.0549 304.7790 0000803 100.8272 259.2807 15.06392673 82680","TIME_SYSTEM":"UTC","MEAN_MOTION_DDOT":"0.0000000000000","OBJECT_ID":"2020-019AH","MEAN_ANOMALY":"259.2807","ARG_OF_PERICENTER":"100.8272","LAUNCH_DATE":"2020-03-18","PERIAPSIS":"546.680","EPHEMERIS_TYPE":"0","DECAY_DATE":null,"INCLINATION":"53.0549","PERIOD":"95.593","SITE":"AFETR","OBJECT_NAME":"STARLINK-1289","REV_AT_EPOCH":"8268","RCS_SIZE":"LARGE","TLE_LINE1":"1 45391U 20019AH  21255.60092321  .00000675  00000-0  64187-4 0  9990","MEAN_ELEMENT_THEORY":"SGP4","FILE":"3114195"},{"OBJECT_ID":"2020-019AJ","MEAN_MOTION_DDOT":"0.0000000000000","MEAN_ANOMALY":"185.1422","ARG_OF_PERICENTER":"174.9574","LAUNCH_DATE":"2020-03-18","DECAY_DATE":null,"PERIAPSIS":"543.207","EPHEMERIS_TYPE":"0","INCLINATION":"52.9936","PERIOD":"95.520","SITE":"AFETR","REV_AT_EPOCH":"8269","OBJECT_NAME":"STARLINK-1290","TLE_LINE1":"1 45392U 20019AJ  21255.60645529  .00003989  00000-0  27802-3 0  9998","MEAN_ELEMENT_THEORY":"SGP4","RCS_SIZE":"LARGE","FILE":"3114195","GP_ID":"184598547","ECCENTRICITY":"0.00007380","OBJECT_TYPE":"PAYLOAD","RA_OF_ASC_NODE":"302.1870","EPOCH":"2021-09-12T14:33:17.737056","CENTER_NAME":"EARTH","SEMIMAJOR_AXIS":"6921.853","NORAD_CAT_ID":"45392","APOAPSIS":"544.229","BSTAR":"0.00027802000000","MEAN_MOTION":"15.07541145","MEAN_MOTION_DOT":"0.00003989","COUNTRY_CODE":"US","REF_FRAME":"TEME","ELEMENT_SET_NO":"999","CLASSIFICATION_TYPE":"U","TIME_SYSTEM":"UTC","TLE_LINE2":"2 45392  52.9936 302.1870 0000738 174.9574 185.1422 15.07541145 82696"},{"ECCENTRICITY":"0.00007400","OBJECT_TYPE":"PAYLOAD","RA_OF_ASC_NODE":"304.9526","EPOCH":"2021-09-12T13:32:14.510112","GP_ID":"184597809","APOAPSIS":"547.725","CENTER_NAME":"EARTH","SEMIMAJOR_AXIS":"6925.347","NORAD_CAT_ID":"45393","COUNTRY_CODE":"US","MEAN_MOTION_DOT":"-0.00000622","BSTAR":"-0.00002289000000","MEAN_MOTION":"15.06400428","CLASSIFICATION_TYPE":"U","TLE_LINE2":"2 45393  53.0543 304.9526 0000740  99.2491 260.8582 15.06400428 82719","TIME_SYSTEM":"UTC","REF_FRAME":"TEME","ELEMENT_SET_NO":"999","MEAN_ANOMALY":"260.8582","ARG_OF_PERICENTER":"99.2491","LAUNCH_DATE":"2020-03-18","OBJECT_ID":"2020-019AK","MEAN_MOTION_DDOT":"0.0000000000000","INCLINATION":"53.0543","DECAY_DATE":null,"PERIAPSIS":"546.700","EPHEMERIS_TYPE":"0","REV_AT_EPOCH":"8271","OBJECT_NAME":"STARLINK-1291","PERIOD":"95.592","SITE":"AFETR","FILE":"3114195","MEAN_ELEMENT_THEORY":"SGP4","TLE_LINE1":"1 45393U 20019AK  21255.56405683 -.00000622  00000-0 -22890-4 0  9995","RCS_SIZE":"LARGE"},{"APOAPSIS":"547.867","NORAD_CAT_ID":"45394","SEMIMAJOR_AXIS":"6925.378","CENTER_NAME":"EARTH","EPOCH":"2021-09-12T12:39:10.168992","RA_OF_ASC_NODE":"305.1148","OBJECT_TYPE":"PAYLOAD","ECCENTRICITY":"0.00009010","GP_ID":"184598059","TIME_SYSTEM":"UTC","TLE_LINE2":"2 45394  53.0546 305.1148 0000901  93.0975 267.0117 15.06390311 82682","CLASSIFICATION_TYPE":"U","ELEMENT_SET_NO":"999","REF_FRAME":"TEME","MEAN_MOTION_DOT":"-0.00000392","COUNTRY_CODE":"US","MEAN_MOTION":"15.06390311","BSTAR":"-0.00000741310000","INCLINATION":"53.0546","PERIAPSIS":"546.619","EPHEMERIS_TYPE":"0","DECAY_DATE":null,"ARG_OF_PERICENTER":"93.0975","LAUNCH_DATE":"2020-03-18","MEAN_ANOMALY":"267.0117","MEAN_MOTION_DDOT":"0.0000000000000","OBJECT_ID":"2020-019AL","FILE":"3114195","RCS_SIZE":"LARGE","TLE_LINE1":"1 45394U 20019AL  21255.52720103 -.00000392  00000-0 -74131-5 0  9999","MEAN_ELEMENT_THEORY":"SGP4","OBJECT_NAME":"STARLINK-1292","REV_AT_EPOCH":"8268","SITE":"AFETR","PERIOD":"95.593"},{"INCLINATION":"53.0539","EPHEMERIS_TYPE":"0","PERIAPSIS":"546.741","DECAY_DATE":null,"ARG_OF_PERICENTER":"127.0906","LAUNCH_DATE":"2020-03-18","MEAN_ANOMALY":"233.0143","MEAN_MOTION_DDOT":"0.0000000000000","OBJECT_ID":"2020-019AM","FILE":"3114195","RCS_SIZE":"LARGE","MEAN_ELEMENT_THEORY":"SGP4","TLE_LINE1":"1 45395U 20019AM  21255.55667660  .00002581  00000-0  19208-3 0  9993","OBJECT_NAME":"STARLINK-1297","REV_AT_EPOCH":"8213","PERIOD":"95.592","SITE":"AFETR","APOAPSIS":"547.647","NORAD_CAT_ID":"45395","SEMIMAJOR_AXIS":"6925.329","CENTER_NAME":"EARTH","EPOCH":"2021-09-12T13:21:36.858240","OBJECT_TYPE":"PAYLOAD","RA_OF_ASC_NODE":"304.9857","ECCENTRICITY":"0.00006540","GP_ID":"184598310","TIME_SYSTEM":"UTC","TLE_LINE2":"2 45395  53.0539 304.9857 0000654 127.0906 233.0143 15.06406262 82131","CLASSIFICATION_TYPE":"U","ELEMENT_SET_NO":"999","REF_FRAME":"TEME","COUNTRY_CODE":"US","MEAN_MOTION_DOT":"0.00002581","MEAN_MOTION":"15.06406262","BSTAR":"0.00019208000000"},{"CLASSIFICATION_TYPE":"U","TLE_LINE2":"2 45396  53.0540 304.7680 0000697 109.2072 250.8992 15.06391191 82671","TIME_SYSTEM":"UTC","ELEMENT_SET_NO":"999","REF_FRAME":"TEME","MEAN_MOTION_DOT":"-0.00000829","COUNTRY_CODE":"US","MEAN_MOTION":"15.06391191","BSTAR":"-0.00003679600000","APOAPSIS":"547.723","NORAD_CAT_ID":"45396","SEMIMAJOR_AXIS":"6925.376","CENTER_NAME":"EARTH","RA_OF_ASC_NODE":"304.7680","OBJECT_TYPE":"PAYLOAD","EPOCH":"2021-09-12T14:30:37.680192","ECCENTRICITY":"0.00006970","GP_ID":"184599048","FILE":"3114195","RCS_SIZE":"LARGE","MEAN_ELEMENT_THEORY":"SGP4","TLE_LINE1":"1 45396U 20019AN  21255.60460278 -.00000829  00000-0 -36796-4 0  9993","OBJECT_NAME":"STARLINK-1303","REV_AT_EPOCH":"8267","SITE":"AFETR","PERIOD":"95.593","INCLINATION":"53.0540","PERIAPSIS":"546.758","EPHEMERIS_TYPE":"0","DECAY_DATE":null,"MEAN_ANOMALY":"250.8992","LAUNCH_DATE":"2020-03-18","ARG_OF_PERICENTER":"109.2072","MEAN_MOTION_DDOT":"0.0000000000000","OBJECT_ID":"2020-019AN"},{"INCLINATION":"53.0540","DECAY_DATE":null,"EPHEMERIS_TYPE":"0","PERIAPSIS":"546.799","MEAN_ANOMALY":"257.8116","LAUNCH_DATE":"2020-03-18","ARG_OF_PERICENTER":"102.2941","OBJECT_ID":"2020-019AP","MEAN_MOTION_DDOT":"0.0000000000000","FILE":"3114195","MEAN_ELEMENT_THEORY":"SGP4","TLE_LINE1":"1 45397U 20019AP  21255.54930476  .00000154  00000-0  29212-4 0  9993","RCS_SIZE":"LARGE","REV_AT_EPOCH":"8277","OBJECT_NAME":"STARLINK-1307","SITE":"AFETR","PERIOD":"95.592","APOAPSIS":"547.643","CENTER_NAME":"EARTH","NORAD_CAT_ID":"45397","SEMIMAJOR_AXIS":"6925.356","ECCENTRICITY":"0.00006090","RA_OF_ASC_NODE":"305.0177","OBJECT_TYPE":"PAYLOAD","EPOCH":"2021-09-12T13:10:59.931264","GP_ID":"184597309","CLASSIFICATION_TYPE":"U","TLE_LINE2":"2 45397  53.0540 305.0177 0000609 102.2941 257.8116 15.06397653 82773","TIME_SYSTEM":"UTC","REF_FRAME":"TEME","ELEMENT_SET_NO":"999","COUNTRY_CODE":"US","MEAN_MOTION_DOT":"0.00000154","BSTAR":"0.00002921200000","MEAN_MOTION":"15.06397653"},{"APOAPSIS":"547.700","CENTER_NAME":"EARTH","SEMIMAJOR_AXIS":"6925.365","NORAD_CAT_ID":"45398","ECCENTRICITY":"0.00006790","OBJECT_TYPE":"PAYLOAD","RA_OF_ASC_NODE":"305.3461","EPOCH":"2021-09-12T11:24:51.300000","GP_ID":"184597559","CLASSIFICATION_TYPE":"U","TIME_SYSTEM":"UTC","TLE_LINE2":"2 45398  53.0538 305.3461 0000679  87.1043 273.0024 15.06394723 82695","REF_FRAME":"TEME","ELEMENT_SET_NO":"999","COUNTRY_CODE":"US","MEAN_MOTION_DOT":"0.00001422","BSTAR":"0.00011436000000","MEAN_MOTION":"15.06394723","INCLINATION":"53.0538","DECAY_DATE":null,"PERIAPSIS":"546.759","EPHEMERIS_TYPE":"0","MEAN_ANOMALY":"273.0024","ARG_OF_PERICENTER":"87.1043","LAUNCH_DATE":"2020-03-18","OBJECT_ID":"2020-019AQ","MEAN_MOTION_DDOT":"0.0000000000000","FILE":"3114195","TLE_LINE1":"1 45398U 20019AQ  21255.47559375  .00001422  00000-0  11436-3 0  9998","MEAN_ELEMENT_THEORY":"SGP4","RCS_SIZE":"LARGE","REV_AT_EPOCH":"8269","OBJECT_NAME":"STARLINK-1312","PERIOD":"95.592","SITE":"AFETR"},{"FILE":"3114195","MEAN_ELEMENT_THEORY":"SGP4","TLE_LINE1":"1 45399U 20019AR  21255.51708105  .00001237  00000-0  10193-3 0  9994","RCS_SIZE":"LARGE","REV_AT_EPOCH":"8289","OBJECT_NAME":"STARLINK-1255","SITE":"AFETR","PERIOD":"95.593","INCLINATION":"53.0535","DECAY_DATE":null,"PERIAPSIS":"546.546","EPHEMERIS_TYPE":"0","ARG_OF_PERICENTER":"70.0429","LAUNCH_DATE":"2020-03-18","MEAN_ANOMALY":"290.0669","OBJECT_ID":"2020-019AR","MEAN_MOTION_DDOT":"0.0000000000000","TIME_SYSTEM":"UTC","TLE_LINE2":"2 45399  53.0535 295.1610 0001017  70.0429 290.0669 15.06388107 82896","CLASSIFICATION_TYPE":"U","REF_FRAME":"TEME","ELEMENT_SET_NO":"999","MEAN_MOTION_DOT":"0.00001237","COUNTRY_CODE":"US","BSTAR":"0.00010193000000","MEAN_MOTION":"15.06388107","APOAPSIS":"547.954","CENTER_NAME":"EARTH","NORAD_CAT_ID":"45399","SEMIMAJOR_AXIS":"6925.385","ECCENTRICITY":"0.00010170","EPOCH":"2021-09-12T12:24:35.802720","RA_OF_ASC_NODE":"295.1610","OBJECT_TYPE":"PAYLOAD","GP_ID":"184598811"},{"BSTAR":"0.00010017000000","MEAN_MOTION":"15.06405117","COUNTRY_CODE":"US","MEAN_MOTION_DOT":"0.00001211","REF_FRAME":"TEME","ELEMENT_SET_NO":"999","CLASSIFICATION_TYPE":"U","TIME_SYSTEM":"UTC","TLE_LINE2":"2 45400  53.0548 295.0947 0000494 117.2767 242.8272 15.06405117 82821","GP_ID":"184598548","ECCENTRICITY":"0.00004940","RA_OF_ASC_NODE":"295.0947","OBJECT_TYPE":"PAYLOAD","EPOCH":"2021-09-12T12:45:47.935584","CENTER_NAME":"EARTH","NORAD_CAT_ID":"45400","SEMIMAJOR_AXIS":"6925.333","APOAPSIS":"547.540","PERIOD":"95.592","SITE":"AFETR","REV_AT_EPOCH":"8282","OBJECT_NAME":"STARLINK-1213","MEAN_ELEMENT_THEORY":"SGP4","TLE_LINE1":"1 45400U 20019AS  21255.53180481  .00001211  00000-0  10017-3 0  9997","RCS_SIZE":"LARGE","FILE":"3114195","OBJECT_ID":"2020-019AS","MEAN_MOTION_DDOT":"0.0000000000000","MEAN_ANOMALY":"242.8272","ARG_OF_PERICENTER":"117.2767","LAUNCH_DATE":"2020-03-18","DECAY_DATE":null,"PERIAPSIS":"546.856","EPHEMERIS_TYPE":"0","INCLINATION":"53.0548"}];
